EUTELSAT HOTBIRD 13F    
1 54048U 22134A   26204.25848244  .00000092  00000+0  00000+0 0  9993
2 54048   0.0544 281.4142 0002049  84.8941  40.7448  1.00271553 13732
LDPE-2                  
1 54219U 22144A   26204.32663023 -.00000021  00000+0  00000+0 0  9995
2 54219   5.6832  63.2396 0002591 104.7545 128.1083  1.00546878 12206
EUTELSAT HOTBIRD 13G    
1 54225U 22146A   26204.25848244  .00000092  00000+0  00000+0 0  9993
2 54225   0.0535 226.7570 0001970 305.9666 234.3276  1.00271302  7824
ZHONGXING-19            
1 54230U 22148A   26204.29330689 -.00000077  00000+0  00000+0 0  9998
2 54230   0.0138  82.4373 0003403  55.6425  71.7220  1.00272509 13742
GALAXY 31 (G-31)        
1 54243U 22153A   26203.94677043  .00000000  00000+0  00000+0 0  9992
2 54243   0.0160  65.1214 0001449  61.9203  33.4900  1.00272498  7497
GALAXY 32 (G-32)        
1 54244U 22153B   26204.23785567 -.00000170  00000+0  00000+0 0  9996
2 54244   0.0078  38.5533 0001517  19.5840 237.4671  1.00272230 13500
EUTELSAT 10B            
1 54259U 22157A   26204.25787578  .00000073  00000+0  00000+0 0  9993
2 54259   0.0591  96.4178 0001936 358.9583 308.4009  1.00272096 13383
GALAXY 35 (G-35)        
1 54741U 22170A   26204.28596304  .00000000  00000+0  00000+0 0  9992
2 54741   0.0128  57.9650 0002176  63.0763 189.8255  1.00269698 13257
GALAXY 36 (G-36)        
1 54742U 22170B   26204.23828902 -.00000181  00000+0  00000+0 0  9991
2 54742   0.0222 123.9571 0002768 337.0003 196.7984  1.00272135 13130
METEOSAT-12 (MTG-I1)    
1 54743U 22170C   26204.25579576 -.00000004  00000+0  00000+0 0  9998
2 54743   0.7333  21.0463 0004166  81.1525 290.4751  1.00270121 13349
SHIJIAN-23 (SJ-23)      
1 55131U 23002A   26203.52822448 -.00000358  00000+0  00000+0 0  9995
2 55131   3.8057  77.8677 0003374 277.0595 259.4329  1.00073931 12869
APSTAR-6E               
1 55239U 23005A   26202.92061475 -.00000315  00000+0  00000+0 0  9998
2 55239   0.0410 241.2606 0003590 325.0758 198.7590  1.00273212 19039
USA 342                 
1 55263U 23008A   26200.33994240  .00000000  00000+0  00000+0 0  9996
2 55263   0.0047  62.4879 0000215 103.9152 276.9334  1.00270942 12832
ELEKTRO-L 4             
1 55506U 23016A   26203.70493269 -.00000055  00000+0  00000+0 0  9995
2 55506   0.1025 279.4018 0001656 260.1188 180.4676  1.00271017 12695
AMAZONAS NEXUS          
1 55508U 23017A   26204.20885961 -.00000278  00000+0  00000+0 0  9995
2 55508   0.0344  44.8792 0004518  46.6263 223.6232  1.00270243  7405
ZHONGXING-26            
1 55686U 23023A   26204.28066921 -.00000349  00000+0  00000+0 0  9993
2 55686   0.0608  71.9222 0003529  31.6468  63.5540  1.00267146 12593
LUCH-5X (OLYMP-K 2)     
1 55841U 23031A   26203.41262308  .00000036  00000+0  00000+0 0  9998
2 55841   0.0266  95.1545 0001404 179.4046 236.1308  1.00271960 12291
GAOFEN-13 02            
1 55912U 23036A   26203.92883035 -.00000214  00000+0  00000+0 0  9993
2 55912   1.0304   5.5441 0003464 339.5945  78.2001  1.00273421 12456
SES-18                  
1 55970U 23038A   26204.25010600 -.00000096  00000+0  00000+0 0  9994
2 55970   0.0600 259.7183 0001088 288.4268  99.7727  1.00272232 12467
SES-19                  
1 55971U 23038B   26204.22918897  .00000092  00000+0  00000+0 0  9992
2 55971   0.0396 277.4863 0001917 204.8284 126.2602  1.00274286 12451
INTELSAT 40E (IS-40E)   
1 56174U 23052A   26204.32120890 -.00000170  00000+0  00000+0 0  9991
2 56174   0.0157  89.8276 0002505  52.4430 183.4180  1.00272387 12185
VIASAT-3 F1             
1 56370U 23060A   26203.81046544 -.00000182  00000+0  00000+0 0  9997
2 56370   0.0071  14.7978 0000560  88.8033  39.8173  1.00272039 11791
ARCTURUS                
1 56371U 23060B   26204.08655811 -.00000357  00000+0  00000+0 0  9995
2 56371   2.8635  79.4903 0001467 134.3913 226.2492  1.00590886 11828
GS-1                    
1 56372U 23060C   26204.07212677 -.00000218  00000+0  00000+0 0  9990
2 56372   2.8146  79.4006 0003262 278.2018  58.3060  1.00264609  7897
BEIDOU-3 G4             
1 56564U 23066A   26204.28361589 -.00000276  00000+0  00000+0 0  9993
2 56564   0.4545 341.2296 0005173 182.3217  19.6237  1.00270458 11752
ARABSAT-7B (BADR-8)     
1 56757U 23075A   26204.26099580  .00000149  00000+0  00000+0 0  9992
2 56757   0.0728  30.0634 0003454   4.3633  26.5211  1.00271096 11476
NVS-01 (IRNSS-1J)       
1 56759U 23076A   26204.28153589 -.00000329  00000+0  00000+0 0  9998
2 56759   2.0834 242.7005 0002907  17.0278 272.1546  1.00275296 11476
NUSANTARA TIGA (SATRIA) 
1 57045U 23086A   26204.21354703 -.00000231  00000+0  00000+0 0  9994
2 57045   0.0366  14.5010 0002082 316.4004 192.9219  1.00269333 10123
H2SAT (HEINRICH HERTZ)  
1 57213U 23093A   26204.25605576  .00000007  00000+0  00000+0 0  9990
2 57213   0.0264 106.3480 0000746 229.7173  57.8130  1.00272464 11273
SYRACUSE 4B             
1 57214U 23093B   26204.25458243 -.00000049  00000+0  00000+0 0  9995
2 57214   0.0189  62.8398 0000092  97.0389 226.2934  1.00271648  7321
JUPITER 3 (ECHOSTAR 24) 
1 57479U 23108A   26203.43060517 -.00000146  00000+0  00000+0 0  9995
2 57479   0.0134  54.7872 0001095  67.6245 237.5866  1.00271430 11007
